{"type": "FeatureCollection", "features": [ {"type": "Feature", "properties": {"norad_id": 36047, "name": "COSMOS 2251 DEB", "group": "cosmos-2251-debris", "lat": -71.44199978993706, "lon": -157.9264866539606, "alt_km": 585.6830800772459, "timestamp": "2025-12-17T23:38:07.250456+00:00", "meta": {"OBJECT_NAME": "COSMOS 2251 DEB", "OBJECT_ID": "1993-036AXJ", "EPOCH": "2025-12-16T04:44:59.714304", "MEAN_MOTION": 14.96120051, "ECCENTRICITY": 0.00083259, "INCLINATION": 74.0348, "RA_OF_ASC_NODE": 327.1709, "ARG_OF_PERICENTER": 355.1844, "MEAN_ANOMALY": 4.9259, "EPHEMERIS_TYPE": 0, "CLASSIFICATION_TYPE": "U", "NORAD_CAT_ID": 36047, "ELEMENT_SET_NO": 999, "REV_AT_EPOCH": 65991, "BSTAR": 0.0016966818, "MEAN_MOTION_DOT": 0.00019121, "MEAN_MOTION_DDOT": 0}, "tle": {"line1": "1 36047U 93036AXJ 25350.19791336  .00019121  00000+0  16967-2 0  9999", "line2": "2 36047  74.0348 327.1709 0008325 355.1844   4.9259 14.96120051659913"}}, "geometry": {"type": "Point", "coordinates": [-157.9264866539606, -71.44199978993706]}}, {"type": "Feature", "properties": {"norad_id": 36048, "name": "COSMOS 2251 DEB", "group": "cosmos-2251-debris", "lat": 8.231514093273683, "lon": 107.26886250841939, "alt_km": 785.7431076134571, "timestamp": "2025-12-17T23:38:07.250466+00:00", "meta": {"OBJECT_NAME": "COSMOS 2251 DEB", "OBJECT_ID": "1993-036AXK", "EPOCH": "2025-12-17T13:39:12.731040", "MEAN_MOTION": 14.37860683, "ECCENTRICITY": 0.00268301, "INCLINATION": 74.0571, "RA_OF_ASC_NODE": 290.4034, "ARG_OF_PERICENTER": 339.3705, "MEAN_ANOMALY": 200.0221, "EPHEMERIS_TYPE": 0, "CLASSIFICATION_TYPE": "U", "NORAD_CAT_ID": 36048, "ELEMENT_SET_NO": 999, "REV_AT_EPOCH": 85571, "BSTAR": 0.00023913068, "MEAN_MOTION_DOT": 6.98e-06, "MEAN_MOTION_DDOT": 0}, "tle": {"line1": "1 36048U 93036AXK 25351.56889735  .00000698  00000+0  23913-3 0  9992", "line2": "2 36048  74.0571 290.4034 0026830 339.3705 200.0221 14.37860683855717"}}, "geometry": {"type": "Point", "coordinates": [107.26886250841939, 8.231514093273683]}}, {"type": "Feature", "properties": {"norad_id": 36049, "name": "COSMOS 2251 DEB", "group": "cosmos-2251-debris", "lat": 15.607327388737678, "lon": 113.7251024205703, "alt_km": 693.9371766913255, "timestamp": "2025-12-17T23:38:07.250477+00:00", "meta": {"OBJECT_NAME": "COSMOS 2251 DEB", "OBJECT_ID": "1993-036AXL", "EPOCH": "2025-12-14T15:06:03.977280", "MEAN_MOTION": 14.62178283, "ECCENTRICITY": 0.00106433, "INCLINATION": 74.0297, "RA_OF_ASC_NODE": 115.562, "ARG_OF_PERICENTER": 202.4764, "MEAN_ANOMALY": 157.5938, "EPHEMERIS_TYPE": 0, "CLASSIFICATION_TYPE": "U", "NORAD_CAT_ID": 36049, "ELEMENT_SET_NO": 999, "REV_AT_EPOCH": 85392, "BSTAR": 0.0012373854, "MEAN_MOTION_DOT": 6.209e-05, "MEAN_MOTION_DDOT": 0}, "tle": {"line1": "1 36049U 93036AXL 25348.62921270  .00006209  00000+0  12374-2 0  9999", "line2": "2 36049  74.0297 115.5620 0010643 202.4764 157.5938 14.62178283853929"}}, "geometry": {"type": "Point", "coordinates": [113.7251024205703, 15.607327388737678]}}, {"type": "Feature", "properties": {"norad_id": 36050, "name": "COSMOS 2251 DEB", "group": "cosmos-2251-debris", "lat": 70.75985814921613, "lon": -51.789436186420225, "alt_km": 614.4229717712496, "timestamp": "2025-12-17T23:38:07.250486+00:00", "meta": {"OBJECT_NAME": "COSMOS 2251 DEB", "OBJECT_ID": "1993-036AXM", "EPOCH": "2025-12-15T21:35:48.459552", "MEAN_MOTION": 15.01080492, "ECCENTRICITY": 0.00887608, "INCLINATION": 74.0305, "RA_OF_ASC_NODE": 187.588, "ARG_OF_PERICENTER": 266.4769, "MEAN_ANOMALY": 92.6264, "EPHEMERIS_TYPE": 0, "CLASSIFICATION_TYPE": "U", "NORAD_CAT_ID": 36050, "ELEMENT_SET_NO": 999, "REV_AT_EPOCH": 67082, "BSTAR": 0.00042445305, "MEAN_MOTION_DOT": 5.866e-05, "MEAN_MOTION_DDOT": 0}, "tle": {"line1": "1 36050U 93036AXM 25349.89986643  .00005866  00000+0  42445-3 0  9997", "line2": "2 36050  74.0305 187.5880 0088760 266.4769  92.6264 15.01080492670823"}}, "geometry": {"type": "Point", "coordinates": [-51.789436186420225, 70.75985814921613]}}, {"type": "Feature", "properties": {"norad_id": 36053, "name": "COSMOS 2251 DEB", "group": "cosmos-2251-debris", "lat": -71.53173190384723, "lon": 22.6747572824427, "alt_km": 731.7688317221018, "timestamp": "2025-12-17T23:38:07.250496+00:00", "meta": {"OBJECT_NAME": "COSMOS 2251 DEB", "OBJECT_ID": "1993-036AXQ", "EPOCH": "2025-12-17T02:40:20.863776", "MEAN_MOTION": 14.57233829, "ECCENTRICITY": 0.00325437, "INCLINATION": 73.8701, "RA_OF_ASC_NODE": 144.2965, "ARG_OF_PERICENTER": 91.8963, "MEAN_ANOMALY": 268.5928, "EPHEMERIS_TYPE": 0, "CLASSIFICATION_TYPE": "U", "NORAD_CAT_ID": 36053, "ELEMENT_SET_NO": 999, "REV_AT_EPOCH": 87508, "BSTAR": 0.001194595, "MEAN_MOTION_DOT": 5.411e-05, "MEAN_MOTION_DDOT": 0}, "tle": {"line1": "1 36053U 93036AXQ 25351.11135259  .00005411  00000+0  11946-2 0  9994", "line2": "2 36053  73.8701 144.2965 0032543  91.8963 268.5928 14.57233829875081"}}, "geometry": {"type": "Point", "coordinates": [22.6747572824427, -71.53173190384723]}}, {"type": "Feature", "properties": {"norad_id": 36058, "name": "COSMOS 2251 DEB", "group": "cosmos-2251-debris", "lat": 51.74348261240913, "lon": 44.7683915370533, "alt_km": 698.3713844390068, "timestamp": "2025-12-17T23:38:07.250506+00:00", "meta": {"OBJECT_NAME": "COSMOS 2251 DEB", "OBJECT_ID": "1993-036AXV", "EPOCH": "2025-12-16T09:31:35.831136", "MEAN_MOTION": 14.58710964, "ECCENTRICITY": 0.00443273, "INCLINATION": 74.0236, "RA_OF_ASC_NODE": 26.4887, "ARG_OF_PERICENTER": 159.9009, "MEAN_ANOMALY": 200.3914, "EPHEMERIS_TYPE": 0, "CLASSIFICATION_TYPE": "U", "NORAD_CAT_ID": 36058, "ELEMENT_SET_NO": 999, "REV_AT_EPOCH": 66164, "BSTAR": 0.00034845634, "MEAN_MOTION_DOT": 1.618e-05, "MEAN_MOTION_DDOT": 0}, "tle": {"line1": "1 36058U 93036AXV 25350.39694249  .00001618  00000+0  34846-3 0  9997", "line2": "2 36058  74.0236  26.4887 0044327 159.9009 200.3914 14.58710964661641"}}, "geometry": {"type": "Point", "coordinates": [44.7683915370533, 51.74348261240913]}}, {"type": "Feature", "properties": {"norad_id": 36060, "name": "COSMOS 2251 DEB", "group": "cosmos-2251-debris", "lat": 2.8589913558885907, "lon": -134.34004989502404, "alt_km": 745.9382036494098, "timestamp": "2025-12-17T23:38:07.250629+00:00", "meta": {"OBJECT_NAME": "COSMOS 2251 DEB", "OBJECT_ID": "1993-036AXX", "EPOCH": "2025-12-16T09:19:34.584672", "MEAN_MOTION": 14.42007942, "ECCENTRICITY": 0.00154048, "INCLINATION": 74.0284, "RA_OF_ASC_NODE": 227.7996, "ARG_OF_PERICENTER": 324.3572, "MEAN_ANOMALY": 35.6554, "EPHEMERIS_TYPE": 0, "CLASSIFICATION_TYPE": "U", "NORAD_CAT_ID": 36060, "ELEMENT_SET_NO": 999, "REV_AT_EPOCH": 85062, "BSTAR": 0.00029610749, "MEAN_MOTION_DOT": 9.46e-06, "MEAN_MOTION_DDOT": 0}, "tle": {"line1": "1 36060U 93036AXX 25350.38859473  .00000946  00000+0  29611-3 0  9998", "line2": "2 36060  74.0284 227.7996 0015404 324.3572  35.6554 14.42007942850626"}}, "geometry": {"type": "Point", "coordinates": [-134.34004989502404, 2.8589913558885907]}}, {"type": "Feature", "properties": {"norad_id": 36061, "name": "COSMOS 2251 DEB", "group": "cosmos-2251-debris", "lat": 26.440209934783386, "lon": -1.6487401726090978, "alt_km": 760.63233844982, "timestamp": "2025-12-17T23:38:07.250641+00:00", "meta": {"OBJECT_NAME": "COSMOS 2251 DEB", "OBJECT_ID": "1993-036AXY", "EPOCH": "2025-12-15T17:55:08.095872", "MEAN_MOTION": 14.33713146, "ECCENTRICITY": 0.00367991, "INCLINATION": 74.0242, "RA_OF_ASC_NODE": 354.2562, "ARG_OF_PERICENTER": 81.2237, "MEAN_ANOMALY": 279.3079, "EPHEMERIS_TYPE": 0, "CLASSIFICATION_TYPE": "U", "NORAD_CAT_ID": 36061, "ELEMENT_SET_NO": 999, "REV_AT_EPOCH": 65147, "BSTAR": 0.00027590632, "MEAN_MOTION_DOT": 7.46e-06, "MEAN_MOTION_DDOT": 0}, "tle": {"line1": "1 36061U 93036AXY 25349.74662148  .00000746  00000+0  27591-3 0  9991", "line2": "2 36061  74.0242 354.2562 0036799  81.2237 279.3079 14.33713146651474"}}, "geometry": {"type": "Point", "coordinates": [-1.6487401726090978, 26.440209934783386]}}, {"type": "Feature", "properties": {"norad_id": 36073, "name": "COSMOS 2251 DEB", "group": "cosmos-2251-debris", "lat": 30.417039932739588, "lon": 123.26889410969727, "alt_km": 783.8684875184817, "timestamp": "2025-12-17T23:38:07.250651+00:00", "meta": {"OBJECT_NAME": "COSMOS 2251 DEB", "OBJECT_ID": "1993-036AYL", "EPOCH": "2025-12-14T06:16:10.983072", "MEAN_MOTION": 14.34955439, "ECCENTRICITY": 0.00239275, "INCLINATION": 74.0321, "RA_OF_ASC_NODE": 319.7693, "ARG_OF_PERICENTER": 27.306, "MEAN_ANOMALY": 332.9344, "EPHEMERIS_TYPE": 0, "CLASSIFICATION_TYPE": "U", "NORAD_CAT_ID": 36073, "ELEMENT_SET_NO": 999, "REV_AT_EPOCH": 70229, "BSTAR": 0.0003171948, "MEAN_MOTION_DOT": 8.79e-06, "MEAN_MOTION_DDOT": 0}, "tle": {"line1": "1 36073U 93036AYL 25348.26123823  .00000879  00000+0  31719-3 0  9996", "line2": "2 36073  74.0321 319.7693 0023927  27.3060 332.9344 14.34955439702292"}}, "geometry": {"type": "Point", "coordinates": [123.26889410969727, 30.417039932739588]}}, {"type": "Feature", "properties": {"norad_id": 36074, "name": "COSMOS 2251 DEB", "group": "cosmos-2251-debris", "lat": 73.9605500358425, "lon": 63.78682148344847, "alt_km": 713.0160650556008, "timestamp": "2025-12-17T23:38:07.250662+00:00", "meta": {"OBJECT_NAME": "COSMOS 2251 DEB", "OBJECT_ID": "1993-036AYM", "EPOCH": "2025-12-17T04:55:34.739616", "MEAN_MOTION": 14.43760583, "ECCENTRICITY": 0.00415505, "INCLINATION": 73.9924, "RA_OF_ASC_NODE": 332.1608, "ARG_OF_PERICENTER": 62.4035, "MEAN_ANOMALY": 298.1332, "EPHEMERIS_TYPE": 0, "CLASSIFICATION_TYPE": "U", "NORAD_CAT_ID": 36074, "ELEMENT_SET_NO": 999, "REV_AT_EPOCH": 85974, "BSTAR": 0.00075567049, "MEAN_MOTION_DOT": 2.571e-05, "MEAN_MOTION_DDOT": 0}, "tle": {"line1": "1 36074U 93036AYM 25351.20526319  .00002571  00000+0  75567-3 0  9992", "line2": "2 36074  73.9924 332.1608 0041550  62.4035 298.1332 14.43760583859746"}}, "geometry": {"type": "Point", "coordinates": [63.78682148344847, 73.9605500358425]}}]}